[{"OBJECT_NAME":"STARLINK-4042","OBJECT_ID":"2022-053F","EPOCH":"2025-10-04T21:17:35.587680","MEAN_MOTION":15.08844677,"ECCENTRICITY":0.0001509,"INCLINATION":53.2157,"RA_OF_ASC_NODE":133.5447,"ARG_OF_PERICENTER":93.1832,"MEAN_ANOMALY":266.9333,"EPHEMERIS_TYPE":0,"CLASSIFICATION_TYPE":"U","NORAD_CAT_ID":52661,"ELEMENT_SET_NO":999,"REV_AT_EPOCH":18752,"BSTAR":7.5726e-5,"MEAN_MOTION_DOT":9.18e-6,"MEAN_MOTION_DDOT":0},{"OBJECT_NAME":"STARLINK-4044","OBJECT_ID":"2022-053G","EPOCH":"2025-10-03T14:54:40.431456","MEAN_MOTION":15.08841969,"ECCENTRICITY":0.00014002,"INCLINATION":53.2163,"RA_OF_ASC_NODE":139.2265,"ARG_OF_PERICENTER":91.2703,"MEAN_ANOMALY":268.845,"EPHEMERIS_TYPE":0,"CLASSIFICATION_TYPE":"U","NORAD_CAT_ID":52662,"ELEMENT_SET_NO":999,"REV_AT_EPOCH":18733,"BSTAR":0.00017900273,"MEAN_MOTION_DOT":2.562e-5,"MEAN_MOTION_DDOT":0},{"OBJECT_NAME":"STARLINK-4037","OBJECT_ID":"2022-053H","EPOCH":"2025-10-05T00:12:28.236096","MEAN_MOTION":15.08842646,"ECCENTRICITY":0.0001435,"INCLINATION":53.2148,"RA_OF_ASC_NODE":133.0019,"ARG_OF_PERICENTER":83.1764,"MEAN_ANOMALY":276.9392,"EPHEMERIS_TYPE":0,"CLASSIFICATION_TYPE":"U","NORAD_CAT_ID":52663,"ELEMENT_SET_NO":999,"REV_AT_EPOCH":18754,"BSTAR":5.8883e-5,"MEAN_MOTION_DOT":6.49e-6,"MEAN_MOTION_DDOT":0},{"OBJECT_NAME":"STARLINK-4070","OBJECT_ID":"2022-053J","EPOCH":"2025-10-05T00:23:03.954336","MEAN_MOTION":15.08837317,"ECCENTRICITY":9.58e-5,"INCLINATION":53.2158,"RA_OF_ASC_NODE":132.9672,"ARG_OF_PERICENTER":89.5288,"MEAN_ANOMALY":270.5814,"EPHEMERIS_TYPE":0,"CLASSIFICATION_TYPE":"U","NORAD_CAT_ID":52664,"ELEMENT_SET_NO":999,"REV_AT_EPOCH":18754,"BSTAR":0.0010004,"MEAN_MOTION_DOT":0.00015668,"MEAN_MOTION_DDOT":0},{"OBJECT_NAME":"STARLINK-4064","OBJECT_ID":"2022-053K","EPOCH":"2025-10-04T23:56:34.646208","MEAN_MOTION":15.08847889,"ECCENTRICITY":0.0001723,"INCLINATION":53.215,"RA_OF_ASC_NODE":133.0495,"ARG_OF_PERICENTER":84.9932,"MEAN_ANOMALY":275.1256,"EPHEMERIS_TYPE":0,"CLASSIFICATION_TYPE":"U","NORAD_CAT_ID":52665,"ELEMENT_SET_NO":999,"REV_AT_EPOCH":18754,"BSTAR":0.00038263,"MEAN_MOTION_DOT":5.808e-5,"MEAN_MOTION_DDOT":0},{"OBJECT_NAME":"STARLINK-4079","OBJECT_ID":"2022-053L","EPOCH":"2025-10-05T00:49:30.434592","MEAN_MOTION":15.08836889,"ECCENTRICITY":0.0001329,"INCLINATION":53.2148,"RA_OF_ASC_NODE":132.4992,"ARG_OF_PERICENTER":88.7203,"MEAN_ANOMALY":271.3942,"EPHEMERIS_TYPE":0,"CLASSIFICATION_TYPE":"U","NORAD_CAT_ID":52666,"ELEMENT_SET_NO":999,"REV_AT_EPOCH":18755,"BSTAR":6.6216e-5,"MEAN_MOTION_DOT":7.66e-6,"MEAN_MOTION_DDOT":0},{"OBJECT_NAME":"STARLINK-4076","OBJECT_ID":"2022-053M","EPOCH":"2025-10-04T23:51:16.619040","MEAN_MOTION":15.08842272,"ECCENTRICITY":0.0001465,"INCLINATION":53.2158,"RA_OF_ASC_NODE":133.0662,"ARG_OF_PERICENTER":89.8468,"MEAN_ANOMALY":270.2692,"EPHEMERIS_TYPE":0,"CLASSIFICATION_TYPE":"U","NORAD_CAT_ID":52667,"ELEMENT_SET_NO":999,"REV_AT_EPOCH":18754,"BSTAR":2.5539e-5,"MEAN_MOTION_DOT":1.19e-6,"MEAN_MOTION_DDOT":0},{"OBJECT_NAME":"STARLINK-4067","OBJECT_ID":"2022-053N","EPOCH":"2025-10-05T00:01:51.915648","MEAN_MOTION":15.08849273,"ECCENTRICITY":0.0001483,"INCLINATION":53.2158,"RA_OF_ASC_NODE":133.0332,"ARG_OF_PERICENTER":85.974,"MEAN_ANOMALY":274.1421,"EPHEMERIS_TYPE":0,"CLASSIFICATION_TYPE":"U","NORAD_CAT_ID":52668,"ELEMENT_SET_NO":999,"REV_AT_EPOCH":18754,"BSTAR":0.00010189,"MEAN_MOTION_DOT":1.334e-5,"MEAN_MOTION_DDOT":0},{"OBJECT_NAME":"STARLINK-3972","OBJECT_ID":"2022-053P","EPOCH":"2025-10-04T23:35:22.897824","MEAN_MOTION":15.08908185,"ECCENTRICITY":4.77e-5,"INCLINATION":53.2188,"RA_OF_ASC_NODE":133.1162,"ARG_OF_PERICENTER":331.3335,"MEAN_ANOMALY":28.7631,"EPHEMERIS_TYPE":0,"CLASSIFICATION_TYPE":"U","NORAD_CAT_ID":52669,"ELEMENT_SET_NO":999,"REV_AT_EPOCH":18753,"BSTAR":-0.0011753,"MEAN_MOTION_DOT":-0.00018977,"MEAN_MOTION_DDOT":0},{"OBJECT_NAME":"STARLINK-4075","OBJECT_ID":"2022-053Q","EPOCH":"2025-10-05T00:07:10.692768","MEAN_MOTION":15.0884693,"ECCENTRICITY":0.0001496,"INCLINATION":53.2153,"RA_OF_ASC_NODE":133.0828,"ARG_OF_PERICENTER":85.2508,"MEAN_ANOMALY":274.8655,"EPHEMERIS_TYPE":0,"CLASSIFICATION_TYPE":"U","NORAD_CAT_ID":52670,"ELEMENT_SET_NO":999,"REV_AT_EPOCH":18754,"BSTAR":2.5486e-5,"MEAN_MOTION_DOT":1.18e-6,"MEAN_MOTION_DDOT":0},{"OBJECT_NAME":"STARLINK-4071","OBJECT_ID":"2022-053R","EPOCH":"2025-10-04T23:30:05.059872","MEAN_MOTION":15.08841192,"ECCENTRICITY":0.0001819,"INCLINATION":53.2189,"RA_OF_ASC_NODE":133.1372,"ARG_OF_PERICENTER":103.2342,"MEAN_ANOMALY":256.8853,"EPHEMERIS_TYPE":0,"CLASSIFICATION_TYPE":"U","NORAD_CAT_ID":52671,"ELEMENT_SET_NO":999,"REV_AT_EPOCH":18753,"BSTAR":6.3663e-5,"MEAN_MOTION_DOT":7.25e-6,"MEAN_MOTION_DDOT":0},{"OBJECT_NAME":"STARLINK-4073","OBJECT_ID":"2022-053S","EPOCH":"2025-10-04T20:35:12.249888","MEAN_MOTION":15.08840641,"ECCENTRICITY":9.91e-5,"INCLINATION":53.2155,"RA_OF_ASC_NODE":133.6786,"ARG_OF_PERICENTER":90.2321,"MEAN_ANOMALY":269.8785,"EPHEMERIS_TYPE":0,"CLASSIFICATION_TYPE":"U","NORAD_CAT_ID":52672,"ELEMENT_SET_NO":999,"REV_AT_EPOCH":18751,"BSTAR":7.5689e-5,"MEAN_MOTION_DOT":9.17e-6,"MEAN_MOTION_DDOT":0},{"OBJECT_NAME":"STARLINK-3976","OBJECT_ID":"2022-053T","EPOCH":"2025-10-04T21:44:05.828928","MEAN_MOTION":15.08840999,"ECCENTRICITY":0.0001742,"INCLINATION":53.2152,"RA_OF_ASC_NODE":133.463,"ARG_OF_PERICENTER":88.4437,"MEAN_ANOMALY":271.6755,"EPHEMERIS_TYPE":0,"CLASSIFICATION_TYPE":"U","NORAD_CAT_ID":52673,"ELEMENT_SET_NO":999,"REV_AT_EPOCH":18752,"BSTAR":2.282e-5,"MEAN_MOTION_DOT":7.5e-7,"MEAN_MOTION_DDOT":0},{"OBJECT_NAME":"STARLINK-3936","OBJECT_ID":"2022-053U","EPOCH":"2025-10-03T14:17:34.903104","MEAN_MOTION":15.0883645,"ECCENTRICITY":0.00016234,"INCLINATION":53.2145,"RA_OF_ASC_NODE":139.3445,"ARG_OF_PERICENTER":82.0468,"MEAN_ANOMALY":278.0708,"EPHEMERIS_TYPE":0,"CLASSIFICATION_TYPE":"U","NORAD_CAT_ID":52674,"ELEMENT_SET_NO":999,"REV_AT_EPOCH":18733,"BSTAR":-1.94496e-6,"MEAN_MOTION_DOT":-3.19e-6,"MEAN_MOTION_DDOT":0},{"OBJECT_NAME":"STARLINK-3934","OBJECT_ID":"2022-053V","EPOCH":"2025-10-04T20:04:43.965408","MEAN_MOTION":15.08838152,"ECCENTRICITY":0.0001398,"INCLINATION":53.2154,"RA_OF_ASC_NODE":123.7719,"ARG_OF_PERICENTER":90.9497,"MEAN_ANOMALY":269.1656,"EPHEMERIS_TYPE":0,"CLASSIFICATION_TYPE":"U","NORAD_CAT_ID":52675,"ELEMENT_SET_NO":999,"REV_AT_EPOCH":18764,"BSTAR":0.00019099,"MEAN_MOTION_DOT":2.753e-5,"MEAN_MOTION_DDOT":0},{"OBJECT_NAME":"STARLINK-4006","OBJECT_ID":"2022-053W","EPOCH":"2025-10-04T23:24:47.268576","MEAN_MOTION":15.08833924,"ECCENTRICITY":0.0001199,"INCLINATION":53.217,"RA_OF_ASC_NODE":133.1514,"ARG_OF_PERICENTER":97.9503,"MEAN_ANOMALY":262.1625,"EPHEMERIS_TYPE":0,"CLASSIFICATION_TYPE":"U","NORAD_CAT_ID":52676,"ELEMENT_SET_NO":999,"REV_AT_EPOCH":18753,"BSTAR":1.7041e-5,"MEAN_MOTION_DOT":-1.7e-7,"MEAN_MOTION_DDOT":0},{"OBJECT_NAME":"STARLINK-4074","OBJECT_ID":"2022-053Y","EPOCH":"2025-10-04T23:31:25.767840","MEAN_MOTION":15.0882793,"ECCENTRICITY":0.0001359,"INCLINATION":53.2158,"RA_OF_ASC_NODE":123.2342,"ARG_OF_PERICENTER":82.1153,"MEAN_ANOMALY":277.9994,"EPHEMERIS_TYPE":0,"CLASSIFICATION_TYPE":"U","NORAD_CAT_ID":52678,"ELEMENT_SET_NO":999,"REV_AT_EPOCH":18766,"BSTAR":-0.00019922,"MEAN_MOTION_DOT":-3.456e-5,"MEAN_MOTION_DDOT":0}]
