STARLINK-4042           
1 52661U 22053F   25277.88721745  .00000918  00000+0  75726-4 0  9995
2 52661  53.2157 133.5447 0001509  93.1832 266.9333 15.08844677187528
STARLINK-4044           
1 52662U 22053G   25276.62130129  .00002562  00000+0  17900-3 0  9993
2 52662  53.2163 139.2265 0001400  91.2703 268.8450 15.08841969187334
STARLINK-4037           
1 52663U 22053H   25278.00866014  .00000649  00000+0  58883-4 0  9997
2 52663  53.2148 133.0019 0001435  83.1764 276.9392 15.08842646187543
STARLINK-4070           
1 52664U 22053J   25278.01601799  .00015668  00000+0  10004-2 0  9994
2 52664  53.2158 132.9672 0000958  89.5288 270.5814 15.08837317187546
STARLINK-4064           
1 52665U 22053K   25277.99762322  .00005808  00000+0  38263-3 0  9994
2 52665  53.2150 133.0495 0001723  84.9932 275.1256 15.08847889187546
STARLINK-4079           
1 52666U 22053L   25278.03438003  .00000766  00000+0  66216-4 0  9995
2 52666  53.2148 132.4992 0001329  88.7203 271.3942 15.08836889187553
STARLINK-4076           
1 52667U 22053M   25277.99394235  .00000119  00000+0  25539-4 0  9993
2 52667  53.2158 133.0662 0001465  89.8468 270.2692 15.08842272187544
STARLINK-4067           
1 52668U 22053N   25278.00129532  .00001334  00000+0  10189-3 0  9997
2 52668  53.2158 133.0332 0001483  85.9740 274.1421 15.08849273187540
STARLINK-3972           
1 52669U 22053P   25277.98290391 -.00018977  00000+0 -11753-2 0  9996
2 52669  53.2188 133.1162 0000477 331.3335  28.7631 15.08908185187539
STARLINK-4075           
1 52670U 22053Q   25278.00498487  .00000118  00000+0  25486-4 0  9994
2 52670  53.2153 133.0828 0001496  85.2508 274.8655 15.08846930187540
STARLINK-4071           
1 52671U 22053R   25277.97922523  .00000725  00000+0  63663-4 0  9996
2 52671  53.2189 133.1372 0001819 103.2342 256.8853 15.08841192187535
STARLINK-4073           
1 52672U 22053S   25277.85778067  .00000917  00000+0  75689-4 0  9990
2 52672  53.2155 133.6786 0000991  90.2321 269.8785 15.08840641187519
STARLINK-3976           
1 52673U 22053T   25277.90562302  .00000075  00000+0  22820-4 0  9994
2 52673  53.2152 133.4630 0001742  88.4437 271.6755 15.08840999187520
STARLINK-3936           
1 52674U 22053U   25276.59554286 -.00000319  00000+0 -19450-5 0  9990
2 52674  53.2145 139.3445 0001623  82.0468 278.0708 15.08836450187339
STARLINK-3934           
1 52675U 22053V   25277.83661997  .00002753  00000+0  19099-3 0  9996
2 52675  53.2154 123.7719 0001398  90.9497 269.1656 15.08838152187648
STARLINK-4006           
1 52676U 22053W   25277.97554709 -.00000017  00000+0  17041-4 0  9992
2 52676  53.2170 133.1514 0001199  97.9503 262.1625 15.08833924187538
STARLINK-4074           
1 52678U 22053Y   25277.98015935 -.00003456  00000+0 -19922-3 0  9998
2 52678  53.2158 123.2342 0001359  82.1153 277.9994 15.08827930187667
